NORAD_CAT_ID,OBJECT_NAME,OBJECT_TYPE,EPOCH,MEAN_MOTION,ECCENTRICITY,INCLINATION,RA_OF_ASC_NODE,ARG_OF_PERICENTER,MEAN_ANOMALY,BSTAR,MEAN_MOTION_DOT,MEAN_MOTION_DDOT,TLE_LINE0,TLE_LINE1,TLE_LINE2,SEMIMAJOR_AXIS,PERIOD,APOGEE,PERIGEE,DECAYED
51998.0,STARLINK-3618,PAYLOAD,2022-08-17 16:00:00,15.08848474,0.0001492,53.2169,95.1364,80.8075,258.6614,0.00043653,6.668e-05,0.0,0 STARLINK-3618,1 51998U 22025AU  22229.66667824  .00006668  00000-0  43653-3 0  9995,2 51998  53.2169  95.1364 0001492  80.8075 258.6614 15.08848474 26179,6917.854,95.437,540.752,538.687,0.0
51998.0,STARLINK-3618,PAYLOAD,2022-08-18 14:00:01,15.0882886,0.0001365999999999,53.2166,91.021,80.7425,200.6577,0.0023833,0.00037835,0.0,0 STARLINK-3618,1 51998U 22025AU  22230.58334491  .00037835  00000-0  23833-2 0  9996,2 51998  53.2166  91.0210 0001366  80.7425 200.6577 15.08828860  1309,6917.9140000000025,95.438,540.724,538.8340000000002,0.0
51998.0,STARLINK-3618,PAYLOAD,2022-08-18 22:00:00,15.0884923,0.0001435,53.2172,89.529,71.77,221.2282,-8.706600000000001e-05,-1.674e-05,0.0,0 STARLINK-3618,1 51998U 22025AU  22230.91667824 -.00001674  00000-0 -87066-4 0  9996,2 51998  53.2172  89.5290 0001435  71.7700 221.2282 15.08849230 26368,6917.852,95.437,540.71,538.724,0.0
51998.0,STARLINK-3618,PAYLOAD,2022-08-19 04:00:01,15.08866393,0.0001368,53.2169,88.4082,67.1132,144.651,-0.007775,-0.00122025,0.0,0 STARLINK-3618,1 51998U 22025AU  22231.16668981 -.00122025  00000-0 -77750-2 0  9990,2 51998  53.2169  88.4082 0001368  67.1132 144.6510 15.08866393 26400,6917.8,95.436,540.611,538.7180000000002,0.0
51998.0,STARLINK-3618,PAYLOAD,2022-08-19 14:00:01,15.08808656,0.0001408,53.2168,86.5318,79.5198,236.6911,0.0017902999999999,0.00028295,0.0,0 STARLINK-3618,1 51998U 22025AU  22231.58334491  .00028295  00000-0  17903-2 0  9998,2 51998  53.2168  86.5318 0001408  79.5198 236.6911 15.08808656 26465,6917.976,95.44,540.815,538.867,0.0
51998.0,STARLINK-3618,PAYLOAD,2022-08-19 22:00:00,15.08811798,0.0001528,53.2169,85.0374,70.1894,257.5866,0.00060843,9.401e-05,0.0,0 STARLINK-3618,1 51998U 22025AU  22231.91667824  .00009401  00000-0  60843-3 0  9994,2 51998  53.2169  85.0374 0001528  70.1894 257.5866 15.08811798  1303,6917.967,95.439,540.889,538.775,0.0
51998.0,STARLINK-3618,PAYLOAD,2022-08-20 04:00:00,15.08829859,0.0001465,53.2168,83.9148,68.6508,177.7912,-0.00068319,-0.00011141,0.0,0 STARLINK-3618,1 51998U 22025AU  22232.16667824 -.00011141  00000-0 -68319-3 0  9994,2 51998  53.2168  83.9148 0001465  68.6508 177.7912 15.08829859 26558,6917.911,95.438,540.79,538.763,0.0
51998.0,STARLINK-3618,PAYLOAD,2022-08-20 14:00:01,15.08825162,0.0001465,53.2173,82.04299999999998,78.2808,272.6358,0.0018774999999999,0.00029707,0.0,0 STARLINK-3618,1 51998U 22025AU  22232.58334491  .00029707  00000-0  18775-2 0  9996,2 51998  53.2173  82.0430 0001465  78.2808 272.6358 15.08825162  1306,6917.926,95.438,540.804,538.7769999999998,0.0
51998.0,STARLINK-3618,PAYLOAD,2022-08-20 22:00:00,15.08829602,0.0001583,53.2174,80.5486,69.1675,293.3381,0.00083971,0.00013097,0.0,0 STARLINK-3618,1 51998U 22025AU  22232.91667824  .00013097  00000-0  83971-3 0  9998,2 51998  53.2174  80.5486 0001583  69.1675 293.3381 15.08829602  1302,6917.9119999999975,95.438,540.872,538.682,0.0
51998.0,STARLINK-3618,PAYLOAD,2022-08-21 14:00:01,15.08855259,0.0001564,53.2178,77.5542,77.7775,307.9072,-0.0015007,-0.00024102,0.0,0 STARLINK-3618,1 51998U 22025AU  22233.58334491 -.00024102  00000-0 -15007-2 0  9998,2 51998  53.2178  77.5542 0001564  77.7775 307.9072 15.08855259  1306,6917.834,95.437,540.781,538.617,0.0
51998.0,STARLINK-3618,PAYLOAD,2022-08-21 20:00:01,15.08831777,0.0001699999999999,53.2177,76.4334,71.6369,232.7548,-0.0012179,-0.00019614,0.0,0 STARLINK-3618,1 51998U 22025AU  22233.83334491 -.00019614  00000-0 -12179-2 0  9995,2 51998  53.2177  76.4334 0001700  71.6369 232.7548 15.08831777 26800,6917.906,95.438,540.947,538.594,0.0
51998.0,STARLINK-3618,PAYLOAD,2022-08-21 22:00:00,15.0881497,0.0001729,53.2179,76.0596,70.6103,326.6804,0.00097141,0.00015195,0.0,0 STARLINK-3618,1 51998U 22025AU  22233.91667824  .00015195  00000-0  97141-3 0  9994,2 51998  53.2179  76.0596 0001729  70.6103 326.6804 15.08814970  1306,6917.956999999999,95.439,541.018,538.626,0.0
51998.0,STARLINK-3618,PAYLOAD,2022-08-22 12:00:00,15.08815822,0.0001626,53.218,73.4391,79.1651,248.3905,0.0025846999999999,0.0004106,0.0,0 STARLINK-3618,1 51998U 22025AU  22234.50001157  .00041060  00000-0  25847-2 0  9994,2 51998  53.2180  73.4391 0001626  79.1651 248.3905 15.08815822  1309,6917.954000000002,95.439,540.944,538.694,0.0
51998.0,STARLINK-3618,PAYLOAD,2022-08-22 22:00:00,15.08826542,0.0001714,53.2181,71.5708,71.3157,0.7261,0.001257,0.00019766,0.0,0 STARLINK-3618,1 51998U 22025AU  22234.91667824  .00019766  00000-0  12570-2 0  9995,2 51998  53.2181  71.5708 0001714  71.3157   0.7261 15.08826542  1300,6917.922,95.438,540.972,538.601,0.0
51998.0,STARLINK-3618,PAYLOAD,2022-08-23 04:00:00,15.08857447,0.0001636999999999,53.2178,70.4477,72.137,278.5888,-0.0020147,-0.00032224,0.0,0 STARLINK-3618,1 51998U 22025AU  22235.16667824 -.00032224  00000-0 -20147-2 0  9998,2 51998  53.2178  70.4477 0001637  72.1370 278.5888 15.08857447 27000,6917.8269999999975,95.436,540.825,538.56,0.0
51998.0,STARLINK-3618,PAYLOAD,2022-08-23 14:00:01,15.08850488,0.0001624,53.2181,68.5765,80.8083,14.4137,8.918700000000001e-05,1.132e-05,0.0,0 STARLINK-3618,1 51998U 22025AU  22235.58334491  .00001132  00000-0  89187-4 0  9998,2 51998  53.2181  68.5765 0001624  80.8083  14.4137 15.08850488  1302,6917.848000000001,95.437,540.837,538.59,0.0
51998.0,STARLINK-3618,PAYLOAD,2022-08-23 22:00:01,15.08832108,0.0001673,53.2179,67.0817,72.8084,34.0876,0.001557,0.00024573,0.0,0 STARLINK-3618,1 51998U 22025AU  22235.91668981  .00024573  00000-0  15570-2 0  9996,2 51998  53.2179  67.0817 0001673  72.8084  34.0876 15.08832108 27122,6917.905,95.438,540.927,538.612,0.0
51998.0,STARLINK-3618,PAYLOAD,2022-08-24 14:00:01,15.08866859,0.0001582,53.2177,64.0874,82.7215,47.3098,-0.0015228,-0.00024459,0.0,0 STARLINK-3618,1 51998U 22025AU  22236.58334491 -.00024459  00000-0 -15228-2 0  9991,2 51998  53.2177  64.0874 0001582  82.7215  47.3098 15.08866859  1300,6917.7980000000025,95.436,540.758,538.569,0.0
51998.0,STARLINK-3618,PAYLOAD,2022-08-24 22:00:00,15.08821555,0.0001548,53.2174,62.5926,73.63600000000002,68.0215,0.0008104,0.00012627,0.0,0 STARLINK-3618,1 51998U 22025AU  22236.91667824  .00012627  00000-0  81040-3 0  9995,2 51998  53.2174  62.5926 0001548  73.6360  68.0215 15.08821555 27279,6917.937,95.439,540.873,538.731,0.0
51998.0,STARLINK-3618,PAYLOAD,2022-08-25 14:00:01,15.08835899,0.0001543,53.2175,59.6037,72.26,92.5521,0.00010734,1.421e-05,0.0,0 STARLINK-3618,1 51998U 22025AU  22237.58334491  .00001421  00000-0  10734-3 0  9992,2 51998  53.2175  59.6037 0001543  72.2600  92.5521 15.08835899  1301,6917.893,95.438,540.825,538.69,0.0
51998.0,STARLINK-3618,PAYLOAD,2022-08-25 22:00:00,15.08813312,0.0001519,53.217,58.1035,74.0231,102.3912,0.0025202,0.0004001999999999,0.0,0 STARLINK-3618,1 51998U 22025AU  22237.91667824  .00040020  00000-0  25202-2 0  9991,2 51998  53.2170  58.1035 0001519  74.0231 102.3912 15.08813312 27422,6917.962,95.439,540.878,538.776,0.0
51998.0,STARLINK-3618,PAYLOAD,2022-08-26 12:00:00,15.08836876,0.0001513,53.2168,55.4827,85.00399999999998,21.6816,0.00094199,0.00014734,0.0,0 STARLINK-3618,1 51998U 22025AU  22238.50001157  .00014734  00000-0  94199-3 0  9993,2 51998  53.2168  55.4827 0001513  85.0040  21.6816 15.08836876 27518,6917.89,95.438,540.802,538.7080000000002,0.0
51998.0,STARLINK-3618,PAYLOAD,2022-08-26 14:00:01,15.08852209,0.0001515,53.2169,55.1092,83.6537,115.9896,-0.0010402999999999,-0.00016812,0.0,0 STARLINK-3618,1 51998U 22025AU  22238.58335648 -.00016812  00000-0 -10403-2 0  9992,2 51998  53.2169  55.1092 0001515  83.6537 115.9896 15.08852209  1309,6917.843000000003,95.437,540.756,538.66,0.0
51998.0,STARLINK-3618,PAYLOAD,2022-08-26 22:00:00,15.08819323,0.0001530999999999,53.2168,53.6142,73.6245,137.5648,0.0029041,0.00046208,0.0,0 STARLINK-3618,1 51998U 22025AU  22238.91667824  .00046208  00000-0  29041-2 0  9991,2 51998  53.2168  53.6142 0001531  73.6245 137.5648 15.08819323  1305,6917.944,95.439,540.868,538.749,0.0
51998.0,STARLINK-3618,PAYLOAD,2022-08-27 14:00:01,15.0887491,0.0001475,53.217,50.6198,82.1435,152.2338,-0.003948,-0.00062634,0.0,0 STARLINK-3618,1 51998U 22025AU  22239.58334491 -.00062634  00000-0 -39480-2 0  9997,2 51998  53.2170  50.6198 0001475  82.1435 152.2338 15.08874910  1302,6917.774,95.435,540.659,538.618,0.0
51998.0,STARLINK-3618,PAYLOAD,2022-08-27 20:00:01,15.08821325,0.0001463,53.2171,49.4986,72.9707,80.1248,0.00072197,0.00011215,0.0,0 STARLINK-3618,1 51998U 22025AU  22239.83334491  .00011215  00000-0  72197-3 0  9995,2 51998  53.2171  49.4986 0001463  72.9707  80.1248 15.08821325 27714,6917.937,95.439,540.815,538.79,0.0
51998.0,STARLINK-3618,PAYLOAD,2022-08-27 22:00:00,15.0880486,0.0001443999999999,53.2171,49.1247,71.0323,174.963,0.0031361,0.00049929,0.0,0 STARLINK-3618,1 51998U 22025AU  22239.91667824  .00049929  00000-0  31361-2 0  9993,2 51998  53.2171  49.1247 0001444  71.0323 174.9630 15.08804860  1303,6917.988,95.44,540.852,538.854,0.0
51998.0,STARLINK-3618,PAYLOAD,2022-08-28 14:00:01,15.08855935,0.0001433,53.2176,46.1304,79.1558,190.0029,-0.0011228,-0.00018121,0.0,0 STARLINK-3618,1 51998U 22025AU  22240.58334491 -.00018121  00000-0 -11228-2 0  9991,2 51998  53.2176  46.1304 0001433  79.1558 190.0029 15.08855935  1306,6917.831999999999,95.437,540.688,538.705,0.0
51998.0,STARLINK-3618,PAYLOAD,2022-08-28 22:00:00,15.08830951,0.0001486999999999,53.2177,44.6353,70.133,210.6344,0.0021778,0.00034533,0.0,0 STARLINK-3618,1 51998U 22025AU  22240.91667824  .00034533  00000-0  21778-2 0  9991,2 51998  53.2177  44.6353 0001487  70.1330 210.6344 15.08830951 27872,6917.908,95.438,540.802,538.744,0.0
